[{"OBJECT_NAME":"S-NET B","OBJECT_ID":"2018-014H","EPOCH":"2026-03-09T22:45:17.995680","MEAN_MOTION":15.15604995,"ECCENTRICITY":0.0009334,"INCLINATION":97.5436,"RA_OF_ASC_NODE":334.3767,"ARG_OF_PERICENTER":8.7272,"MEAN_ANOMALY":351.4121,"EPHEMERIS_TYPE":0,"CLASSIFICATION_TYPE":"U","NORAD_CAT_ID":43187,"ELEMENT_SET_NO":999,"REV_AT_EPOCH":44372,"BSTAR":0.00040571081,"MEAN_MOTION_DOT":7.649e-5,"MEAN_MOTION_DDOT":0},{"OBJECT_NAME":"STARLINK-6160","OBJECT_ID":"2023-061J","EPOCH":"2026-03-09T22:00:01.999584","MEAN_MOTION":15.11953448,"ECCENTRICITY":0.00020226,"INCLINATION":43.0008,"RA_OF_ASC_NODE":195.7704,"ARG_OF_PERICENTER":260.2984,"MEAN_ANOMALY":117.8045,"EPHEMERIS_TYPE":0,"CLASSIFICATION_TYPE":"U","NORAD_CAT_ID":56382,"ELEMENT_SET_NO":999,"REV_AT_EPOCH":572,"BSTAR":0.0025993432,"MEAN_MOTION_DOT":0.00045426,"MEAN_MOTION_DDOT":0}]
